[{"OBJECT_NAME":"STARLINK-36920","OBJECT_ID":"2026-037R","EPOCH":"2026-03-09T20:00:00.999360","MEAN_MOTION":15.81980677,"ECCENTRICITY":0.0001613,"INCLINATION":42.9988,"RA_OF_ASC_NODE":197.5376,"ARG_OF_PERICENTER":284.1562,"MEAN_ANOMALY":150.6662,"EPHEMERIS_TYPE":0,"CLASSIFICATION_TYPE":"U","NORAD_CAT_ID":67947,"ELEMENT_SET_NO":999,"REV_AT_EPOCH":322,"BSTAR":0.00044415,"MEAN_MOTION_DOT":0.00093852,"MEAN_MOTION_DDOT":0},{"OBJECT_NAME":"STARLINK-36873","OBJECT_ID":"2026-037S","EPOCH":"2026-03-09T20:00:00.999360","MEAN_MOTION":15.81940501,"ECCENTRICITY":0.0002078,"INCLINATION":42.9988,"RA_OF_ASC_NODE":197.5268,"ARG_OF_PERICENTER":272.1441,"MEAN_ANOMALY":166.9576,"EPHEMERIS_TYPE":0,"CLASSIFICATION_TYPE":"U","NORAD_CAT_ID":67948,"ELEMENT_SET_NO":999,"REV_AT_EPOCH":322,"BSTAR":0.0012402,"MEAN_MOTION_DOT":0.002679,"MEAN_MOTION_DDOT":0},{"OBJECT_NAME":"STARLINK-36863","OBJECT_ID":"2026-037T","EPOCH":"2026-03-09T20:00:00.999360","MEAN_MOTION":15.82085067,"ECCENTRICITY":0.0001455,"INCLINATION":42.999,"RA_OF_ASC_NODE":197.5162,"ARG_OF_PERICENTER":285.217,"MEAN_ANOMALY":158.1813,"EPHEMERIS_TYPE":0,"CLASSIFICATION_TYPE":"U","NORAD_CAT_ID":67949,"ELEMENT_SET_NO":999,"REV_AT_EPOCH":322,"BSTAR":-0.00046268,"MEAN_MOTION_DOT":-0.00097183,"MEAN_MOTION_DDOT":0},{"OBJECT_NAME":"STARLINK-36887","OBJECT_ID":"2026-037U","EPOCH":"2026-03-09T20:00:00.999360","MEAN_MOTION":15.81942944,"ECCENTRICITY":0.0001482,"INCLINATION":42.9991,"RA_OF_ASC_NODE":197.5053,"ARG_OF_PERICENTER":266.4739,"MEAN_ANOMALY":181.1709,"EPHEMERIS_TYPE":0,"CLASSIFICATION_TYPE":"U","NORAD_CAT_ID":67950,"ELEMENT_SET_NO":999,"REV_AT_EPOCH":322,"BSTAR":0.00076407,"MEAN_MOTION_DOT":0.00162854,"MEAN_MOTION_DDOT":0},{"OBJECT_NAME":"STARLINK-36897","OBJECT_ID":"2026-037V","EPOCH":"2026-03-09T20:00:00.999360","MEAN_MOTION":15.81961677,"ECCENTRICITY":0.0001547,"INCLINATION":42.9992,"RA_OF_ASC_NODE":197.4947,"ARG_OF_PERICENTER":275.5473,"MEAN_ANOMALY":176.3852,"EPHEMERIS_TYPE":0,"CLASSIFICATION_TYPE":"U","NORAD_CAT_ID":67951,"ELEMENT_SET_NO":999,"REV_AT_EPOCH":322,"BSTAR":0.00052147,"MEAN_MOTION_DOT":0.00110396,"MEAN_MOTION_DDOT":0},{"OBJECT_NAME":"STARLINK-36381","OBJECT_ID":"2026-037W","EPOCH":"2026-03-09T20:00:00.999360","MEAN_MOTION":15.81949194,"ECCENTRICITY":0.0001642,"INCLINATION":42.9992,"RA_OF_ASC_NODE":197.4732,"ARG_OF_PERICENTER":274.9514,"MEAN_ANOMALY":185.5228,"EPHEMERIS_TYPE":0,"CLASSIFICATION_TYPE":"U","NORAD_CAT_ID":67952,"ELEMENT_SET_NO":999,"REV_AT_EPOCH":322,"BSTAR":0.00067281,"MEAN_MOTION_DOT":0.00143052,"MEAN_MOTION_DDOT":0},{"OBJECT_NAME":"STARLINK-36824","OBJECT_ID":"2026-037X","EPOCH":"2026-03-09T20:00:00.999360","MEAN_MOTION":15.81940012,"ECCENTRICITY":0.0001853,"INCLINATION":42.9992,"RA_OF_ASC_NODE":197.4838,"ARG_OF_PERICENTER":283.7004,"MEAN_ANOMALY":172.4975,"EPHEMERIS_TYPE":0,"CLASSIFICATION_TYPE":"U","NORAD_CAT_ID":67953,"ELEMENT_SET_NO":999,"REV_AT_EPOCH":322,"BSTAR":0.0007552,"MEAN_MOTION_DOT":0.00160902,"MEAN_MOTION_DDOT":0},{"OBJECT_NAME":"STARLINK-36869","OBJECT_ID":"2026-037Y","EPOCH":"2026-03-09T20:00:00.999360","MEAN_MOTION":15.81939236,"ECCENTRICITY":0.0001881,"INCLINATION":42.9991,"RA_OF_ASC_NODE":197.4617,"ARG_OF_PERICENTER":277.1036,"MEAN_ANOMALY":187.6426,"EPHEMERIS_TYPE":0,"CLASSIFICATION_TYPE":"U","NORAD_CAT_ID":67954,"ELEMENT_SET_NO":999,"REV_AT_EPOCH":322,"BSTAR":0.00075993,"MEAN_MOTION_DOT":0.00161927,"MEAN_MOTION_DDOT":0},{"OBJECT_NAME":"STARLINK-36872","OBJECT_ID":"2026-037Z","EPOCH":"2026-03-09T20:00:00.999360","MEAN_MOTION":15.82000619,"ECCENTRICITY":0.0001829,"INCLINATION":42.999,"RA_OF_ASC_NODE":197.44,"ARG_OF_PERICENTER":281.1815,"MEAN_ANOMALY":192.107,"EPHEMERIS_TYPE":0,"CLASSIFICATION_TYPE":"U","NORAD_CAT_ID":67955,"ELEMENT_SET_NO":999,"REV_AT_EPOCH":322,"BSTAR":0.00016958,"MEAN_MOTION_DOT":0.00035295,"MEAN_MOTION_DDOT":0},{"OBJECT_NAME":"STARLINK-36918","OBJECT_ID":"2026-037AA","EPOCH":"2026-03-09T20:00:00.999360","MEAN_MOTION":15.81992349,"ECCENTRICITY":0.0002204,"INCLINATION":42.9991,"RA_OF_ASC_NODE":197.4295,"ARG_OF_PERICENTER":281.0287,"MEAN_ANOMALY":196.5158,"EPHEMERIS_TYPE":0,"CLASSIFICATION_TYPE":"U","NORAD_CAT_ID":67956,"ELEMENT_SET_NO":999,"REV_AT_EPOCH":322,"BSTAR":0.00032206,"MEAN_MOTION_DOT":0.00067741,"MEAN_MOTION_DDOT":0},{"OBJECT_NAME":"STARLINK-36829","OBJECT_ID":"2026-037AB","EPOCH":"2026-03-09T20:00:00.999360","MEAN_MOTION":15.82021732,"ECCENTRICITY":0.0001174,"INCLINATION":42.9991,"RA_OF_ASC_NODE":197.4515,"ARG_OF_PERICENTER":280.9073,"MEAN_ANOMALY":188.0766,"EPHEMERIS_TYPE":0,"CLASSIFICATION_TYPE":"U","NORAD_CAT_ID":67957,"ELEMENT_SET_NO":999,"REV_AT_EPOCH":322,"BSTAR":0.0001247,"MEAN_MOTION_DOT":0.0002581,"MEAN_MOTION_DDOT":0},{"OBJECT_NAME":"STARLINK-36799","OBJECT_ID":"2026-037AC","EPOCH":"2026-03-09T20:00:00.999360","MEAN_MOTION":15.81974813,"ECCENTRICITY":0.0001628,"INCLINATION":42.999,"RA_OF_ASC_NODE":197.4191,"ARG_OF_PERICENTER":262.9694,"MEAN_ANOMALY":218.8613,"EPHEMERIS_TYPE":0,"CLASSIFICATION_TYPE":"U","NORAD_CAT_ID":67958,"ELEMENT_SET_NO":999,"REV_AT_EPOCH":322,"BSTAR":0.00043182,"MEAN_MOTION_DOT":0.00091179,"MEAN_MOTION_DDOT":0},{"OBJECT_NAME":"STARLINK-36834","OBJECT_ID":"2026-037AD","EPOCH":"2026-03-09T20:00:00.999360","MEAN_MOTION":15.81971611,"ECCENTRICITY":0.0001478,"INCLINATION":42.9992,"RA_OF_ASC_NODE":197.3972,"ARG_OF_PERICENTER":282.4542,"MEAN_ANOMALY":207.9249,"EPHEMERIS_TYPE":0,"CLASSIFICATION_TYPE":"U","NORAD_CAT_ID":67959,"ELEMENT_SET_NO":999,"REV_AT_EPOCH":322,"BSTAR":0.00045245,"MEAN_MOTION_DOT":0.00095593,"MEAN_MOTION_DDOT":0},{"OBJECT_NAME":"STARLINK-36841","OBJECT_ID":"2026-037AE","EPOCH":"2026-03-09T20:00:00.999360","MEAN_MOTION":15.81967291,"ECCENTRICITY":0.0001591,"INCLINATION":42.9991,"RA_OF_ASC_NODE":197.4077,"ARG_OF_PERICENTER":275.9414,"MEAN_ANOMALY":210.1698,"EPHEMERIS_TYPE":0,"CLASSIFICATION_TYPE":"U","NORAD_CAT_ID":67960,"ELEMENT_SET_NO":999,"REV_AT_EPOCH":322,"BSTAR":0.00046067,"MEAN_MOTION_DOT":0.00097341,"MEAN_MOTION_DDOT":0},{"OBJECT_NAME":"STARLINK-36912","OBJECT_ID":"2026-038A","EPOCH":"2026-03-09T20:00:00.999360","MEAN_MOTION":15.87112229,"ECCENTRICITY":0.0001482,"INCLINATION":97.2745,"RA_OF_ASC_NODE":79.1155,"ARG_OF_PERICENTER":79.2484,"MEAN_ANOMALY":53.8807,"EPHEMERIS_TYPE":0,"CLASSIFICATION_TYPE":"U","NORAD_CAT_ID":67961,"ELEMENT_SET_NO":999,"REV_AT_EPOCH":322,"BSTAR":-0.0069307,"MEAN_MOTION_DOT":-0.01573618,"MEAN_MOTION_DDOT":0},{"OBJECT_NAME":"STARLINK-36881","OBJECT_ID":"2026-038B","EPOCH":"2026-03-09T20:00:00.999360","MEAN_MOTION":15.87206233,"ECCENTRICITY":0.000152,"INCLINATION":97.2743,"RA_OF_ASC_NODE":79.1166,"ARG_OF_PERICENTER":78.8919,"MEAN_ANOMALY":57.3803,"EPHEMERIS_TYPE":0,"CLASSIFICATION_TYPE":"U","NORAD_CAT_ID":67962,"ELEMENT_SET_NO":999,"REV_AT_EPOCH":322,"BSTAR":-0.0068912,"MEAN_MOTION_DOT":-0.01572173,"MEAN_MOTION_DDOT":0}]
