STARLINK-36920          
1 67947U 26037R   26068.83334490  .00093852  00000+0  44415-3 0  9994
2 67947  42.9988 197.5376 0001613 284.1562 150.6662 15.81980677  3227
STARLINK-36873          
1 67948U 26037S   26068.83334490  .00267900  00000+0  12402-2 0  9992
2 67948  42.9988 197.5268 0002078 272.1441 166.9576 15.81940501  3223
STARLINK-36863          
1 67949U 26037T   26068.83334490 -.00097183  00000+0 -46268-3 0  9997
2 67949  42.9990 197.5162 0001455 285.2170 158.1813 15.82085067  3227
STARLINK-36887          
1 67950U 26037U   26068.83334490  .00162854  00000+0  76407-3 0  9993
2 67950  42.9991 197.5053 0001482 266.4739 181.1709 15.81942944  3226
STARLINK-36897          
1 67951U 26037V   26068.83334490  .00110396  00000+0  52147-3 0  9993
2 67951  42.9992 197.4947 0001547 275.5473 176.3852 15.81961677  3226
STARLINK-36381          
1 67952U 26037W   26068.83334490  .00143052  00000+0  67281-3 0  9994
2 67952  42.9992 197.4732 0001642 274.9514 185.5228 15.81949194  3223
STARLINK-36824          
1 67953U 26037X   26068.83334490  .00160902  00000+0  75520-3 0  9993
2 67953  42.9992 197.4838 0001853 283.7004 172.4975 15.81940012  3221
STARLINK-36869          
1 67954U 26037Y   26068.83334490  .00161927  00000+0  75993-3 0  9996
2 67954  42.9991 197.4617 0001881 277.1036 187.6426 15.81939236  3224
STARLINK-36872          
1 67955U 26037Z   26068.83334490  .00035295  00000+0  16958-3 0  9991
2 67955  42.9990 197.4400 0001829 281.1815 192.1070 15.82000619  3227
STARLINK-36918          
1 67956U 26037AA  26068.83334490  .00067741  00000+0  32206-3 0  9997
2 67956  42.9991 197.4295 0002204 281.0287 196.5158 15.81992349  3225
STARLINK-36829          
1 67957U 26037AB  26068.83334490  .00025810  00000+0  12470-3 0  9990
2 67957  42.9991 197.4515 0001174 280.9073 188.0766 15.82021732  3228
STARLINK-36799          
1 67958U 26037AC  26068.83334490  .00091179  00000+0  43182-3 0  9996
2 67958  42.9990 197.4191 0001628 262.9694 218.8613 15.81974813  3220
STARLINK-36834          
1 67959U 26037AD  26068.83334490  .00095593  00000+0  45245-3 0  9993
2 67959  42.9992 197.3972 0001478 282.4542 207.9249 15.81971611  3228
STARLINK-36841          
1 67960U 26037AE  26068.83334490  .00097341  00000+0  46067-3 0  9991
2 67960  42.9991 197.4077 0001591 275.9414 210.1698 15.81967291  3220
STARLINK-36912          
1 67961U 26038A   26068.83334490 -.01573618  00000+0 -69307-2 0  9993
2 67961  97.2745  79.1155 0001482  79.2484  53.8807 15.87112229  3228
STARLINK-36881          
1 67962U 26038B   26068.83334490 -.01572173  00000+0 -68912-2 0  9990
2 67962  97.2743  79.1166 0001520  78.8919  57.3803 15.87206233  3224
